0 COSMOS 1159
1 11694U 80012D   13282.65282315 -.00000021  00000-0 -35525-4 0  4635
2 11694 074.0243 358.0479 0017891 033.4047 077.9752 12.50059592536151
0 COSMOS 1159
1 11694U 80012D   13286.66656181  .00000023  00000-0  25577-3 0  4653
2 11694 074.0237 352.7115 0017954 027.2497 140.7850 12.50059322536656
0 COSMOS 1159
1 11694U 80012D   13289.20197153  .00000006  00000-0  14529-3 0  4662
2 11694 074.0230 349.3404 0017998 023.3342 030.7763 12.50059536536979
0 COSMOS 1159
1 11694U 80012D   13291.53391921 -.00000006  00000-0  62497-4 0  4670
2 11694 074.0226 346.2395 0018037 019.7611 085.1104 12.50059799537269
0 COSMOS 1159
1 11694U 80012D   13293.62869796 -.00000022  00000-0 -42544-4 0  4683
2 11694 074.0224 343.4539 0018071 016.5883 152.0905 12.50059902537528
0 COSMOS 1159
1 11694U 80012D   13295.85674895 -.00000015  00000-0  66807-5 0  4695
2 11694 074.0223 340.4910 0018117 013.2012 098.8404 12.50059837537805
